2006 UK,e,4.723967,244.187816,252.110017,1.49143509,0,0.53856603,182.567295,8/27/2011,2000.0,20.11,0.15
2006 UL,e,7.242971,204.641766,165.16716,1.40359105,0,0.26996607,339.460213,8/27/2011,2000.0,26.11,0.15
2006 UM,e,15.904595,57.0645,55.25893,2.23284624,0,0.53954369,138.978011,8/27/2011,2000.0,18.45,0.15
2006 UN,e,0.494158,323.440269,71.971716,1.54900247,0,0.3307189,181.699999,8/27/2011,2000.0,25.51,0.15
2006 UO,e,2.294081,26.098133,77.650562,2.82882384,0,0.66508868,356.182249,8/27/2011,2000.0,21.03,0.15
2006 UX1,e,20.44834,21.04342,96.303071,1.72025848,0,0.39685728,9.189578,8/27/2011,2000.0,22.11,0.15
2006 UY16,e,3.201087,21.263485,337.871162,2.15938706,0,0.52578985,197.160472,8/27/2011,2000.0,24.53,0.15
2006 UA17,e,21.924004,207.795024,116.743722,1.3727027,0,0.28697356,41.992899,8/27/2011,2000.0,23.83,0.15
2006 UB17,e,1.990217,213.969901,135.191955,1.14057768,0,0.10369619,25.533509,8/27/2011,2000.0,26.29,0.15
2006 UE17,e,12.133333,27.765564,115.279576,1.17603416,0,0.33242711,217.794904,8/27/2011,2000.0,21.86,0.15
2006 UF17,e,3.733378,47.898378,235.489719,2.47976572,0,0.80983695,100.195266,8/27/2011,2000.0,21.55,0.15
2006 UQ17,e,1.743924,82.116081,10.279417,1.62375345,0,0.38077041,92.208762,8/27/2011,2000.0,21.86,0.15
2006 UT17,e,2.029981,15.435491,49.586642,2.34207176,0,0.5398743,118.224037,8/27/2011,2000.0,24.23,0.15
2006 UU17,e,2.887886,209.130771,151.259682,2.32967258,0,0.58385351,137.122983,8/27/2011,2000.0,26.42,0.15
2006 UC63,e,16.662459,219.694185,327.958426,1.47247039,0,0.28216851,112.284526,8/27/2011,2000.0,19.7,0.15
2006 UB64,e,9.512612,130.349639,359.303702,2.09525299,0,0.69834412,193.617957,8/27/2011,2000.0,20.66,0.15
2006 UC64,e,6.112479,211.41445,268.92894,2.03743822,0,0.70363289,220.573263,8/27/2011,2000.0,24.96,0.15
2006 UD64,e,29.767416,205.883443,303.908405,2.10929825,0,0.79124734,180.152232,8/27/2011,2000.0,20.23,0.15
2006 UE64,e,7.847882,27.200096,290.03133,1.31933471,0,0.38378471,105.175464,8/27/2011,2000.0,27.98,0.15
2006 UY64,e,26.213879,30.826541,210.855729,0.93149171,0,0.15762673,270.195055,8/27/2011,2000.0,19.45,0.15
2006 UC185,e,4.305387,37.521053,307.451837,1.52624303,0,0.39735272,223.0014,8/27/2011,2000.0,23.45,0.15
2006 UF185,e,33.765683,221.896402,307.273964,1.22762595,0,0.60364105,141.315699,8/27/2011,2000.0,21.5,0.15
2006 UH185,e,11.400026,213.908288,196.912797,1.74227534,0,0.39442539,28.924798,8/27/2011,2000.0,25.15,0.15
2006 UJ185,e,0.864788,35.089109,78.691219,1.69305022,0,0.57873232,46.908145,8/27/2011,2000.0,27.9,0.15
2006 UL185,e,19.43579,52.326103,177.279893,0.84406164,0,0.5019445,229.365466,8/27/2011,2000.0,21.28,0.15
2006 UY215,e,9.352145,215.748194,262.928443,1.38109687,0,0.45914493,316.682378,8/27/2011,2000.0,22.96,0.15
2006 UZ215,e,14.271675,35.22311,222.116504,0.89004849,0,0.20693889,30.352014,8/27/2011,2000.0,25.53,0.15
2006 UA216,e,6.737147,42.831456,340.766223,1.45456989,0,0.31530079,276.285998,8/27/2011,2000.0,23.56,0.15
2006 UQ216,e,0.472936,217.863542,247.427031,1.10373541,0,0.16244621,5.904976,8/27/2011,2000.0,27.28,0.15
2006 UR216,e,14.257782,21.588266,134.251746,1.67405662,0,0.53169838,49.217317,8/27/2011,2000.0,19.72,0.15
2006 UK217,e,41.052152,217.26381,311.477109,1.48992523,0,0.66846105,192.693312,8/27/2011,2000.0,18.8,0.15
2006 UL217,e,9.920826,45.276494,310.039797,1.43045022,0,0.34877967,315.525072,8/27/2011,2000.0,20.72,0.15
2006 UP217,e,1.521545,206.82702,82.957095,1.20244106,0,0.48922565,285.264307,8/27/2011,2000.0,24.88,0.15
2006 UR217,e,17.599172,64.31379,304.998978,2.73681452,0,0.61270263,28.81949,8/27/2011,2000.0,19.77,0.15
2006 VB,e,8.692332,36.979221,325.088419,1.72859334,0,0.42480524,57.061803,8/27/2011,2000.0,25.09,0.15
2006 VC,e,12.256425,87.613007,19.142127,1.94140669,0,0.49182586,258.858119,8/27/2011,2000.0,19.92,0.15
2006 VB2,e,15.846426,4.360524,171.635426,1.79191498,0,0.78788495,334.407014,8/27/2011,2000.0,19.4,0.15
2006 VD2,e,9.020761,121.127706,241.844467,2.57634128,0,0.6001839,65.610829,8/27/2011,2000.0,19.19,0.15
2006 VT2,e,31.808365,59.488613,152.577082,1.26256883,0,0.72338629,47.210392,8/27/2011,2000.0,18.14,0.15
2006 VU2,e,2.187804,226.76597,172.44901,2.34465435,0,0.55354144,122.522874,8/27/2011,2000.0,25.95,0.15
2006 VV2,e,23.71062,9.885559,145.071333,2.38689818,0,0.60499548,76.759577,8/27/2011,2000.0,16.79,0.15
2006 VW2,e,10.047609,229.859479,299.635737,1.23590694,0,0.29462335,86.629892,8/27/2011,2000.0,21.23,0.15
2006 VX2,e,9.827512,47.33666,126.528885,0.93400103,0,0.29082283,16.130291,8/27/2011,2000.0,24.94,0.15
2006 VY2,e,14.565821,231.276852,327.023999,0.89240485,0,0.37725904,130.622557,8/27/2011,2000.0,22.79,0.15
2006 VZ2,e,36.323555,251.889383,215.787733,2.48787176,0,0.59909739,68.610441,8/27/2011,2000.0,19.71,0.15
2006 VA3,e,53.322891,313.009191,307.750722,1.60288934,0,0.67877469,85.232912,8/27/2011,2000.0,17.19,0.15
2006 VD13,e,11.714763,314.060218,162.798603,1.9476375,0,0.48402632,245.727917,8/27/2011,2000.0,18.96,0.15
2006 VE13,e,3.827021,52.648298,305.779909,1.87211148,0,0.5354454,327.120478,8/27/2011,2000.0,26.66,0.15
2006 VF13,e,24.403918,235.547266,161.24738,1.32028447,0,0.24976768,64.904538,8/27/2011,2000.0,23.05,0.15
2006 VG13,e,5.859553,96.635972,115.234615,0.81764055,0,0.30367539,15.248337,8/27/2011,2000.0,21.48,0.15
2006 VP13,e,11.070617,230.988863,234.552475,1.17763578,0,0.14260661,226.104727,8/27/2011,2000.0,23.52,0.15
2006 VQ13,e,16.696135,233.76431,73.761385,1.09966142,0,0.44575734,108.081388,8/27/2011,2000.0,20.05,0.15
2006 VT13,e,2.220305,324.474966,40.594065,2.57202116,0,0.63097518,65.151083,8/27/2011,2000.0,20.75,0.15
2006 VB14,e,31.019746,258.755314,346.433839,0.76678951,0,0.42149528,231.086095,8/27/2011,2000.0,18.57,0.15
2006 VB45,e,12.480715,234.518726,171.201992,1.22270594,0,0.16478954,198.131062,8/27/2011,2000.0,24.49,0.15
2006 WB,e,4.874292,65.250179,162.064473,0.84919314,0,0.18041727,228.375775,8/27/2011,2000.0,22.82,0.15
2006 WV,e,2.141137,56.334342,80.826665,1.52764095,0,0.53164202,162.270161,8/27/2011,2000.0,27.12,0.15
2006 WW,e,33.002092,88.592978,197.507733,2.69217218,0,0.86343285,50.339851,8/27/2011,2000.0,16.24,0.15
2006 WX,e,8.686398,232.090477,166.074506,2.48339518,0,0.60302947,82.649837,8/27/2011,2000.0,25.14,0.15
2006 WP1,e,5.892268,234.2356,98.279168,1.70455099,0,0.60634253,73.478026,8/27/2011,2000.0,28.25,0.15
2006 WS1,e,18.05871,311.751141,320.707523,1.23318475,0,0.46698906,236.401016,8/27/2011,2000.0,19.56,0.15
2006 WT1,e,13.682426,244.92981,170.561769,2.47141367,0,0.60116344,80.667411,8/27/2011,2000.0,19.98,0.15
2006 WV1,e,5.562999,61.959782,149.350361,0.82804297,0,0.28891908,340.713054,8/27/2011,2000.0,25.93,0.15
2006 WW1,e,9.398981,240.442572,322.474124,1.41859144,0,0.50454097,214.642864,8/27/2011,2000.0,19.14,0.15
2006 WX1,e,11.643019,328.065435,290.905776,0.91665387,0,0.30026594,323.380626,8/27/2011,2000.0,19.56,0.15
2006 WA3,e,23.850845,234.704434,47.658949,1.22134549,0,0.1967685,303.172934,8/27/2011,2000.0,22.37,0.15
2006 WB3,e,19.651134,234.961874,172.941982,1.368737,0,0.24371238,357.306321,8/27/2011,2000.0,24.45,0.15
2006 WJ3,e,15.359935,232.633651,178.383727,1.75213249,0,0.42445231,20.272966,8/27/2011,2000.0,19.92,0.15
2006 WL3,e,20.392664,81.353125,67.103504,1.35778566,0,0.24072149,319.932988,8/27/2011,2000.0,20.03,0.15
2006 WM3,e,2.013787,89.814912,36.529435,1.98382395,0,0.54861036,234.085802,8/27/2011,2000.0,23.2,0.15
2006 WN3,e,26.004512,245.063415,294.573553,1.80443618,0,0.50315706,283.787655,8/27/2011,2000.0,19.81,0.15
2006 WO3,e,21.213223,252.658573,9.66153,0.799737,0,0.44743189,19.556836,8/27/2011,2000.0,21.47,0.15
2006 WP3,e,7.430979,221.207394,141.097782,1.35671874,0,0.33970625,34.120218,8/27/2011,2000.0,23.47,0.15
2006 WX3,e,14.685922,244.432983,123.243023,2.70406586,0,0.63914655,35.267166,8/27/2011,2000.0,22.35,0.15
2006 WY3,e,2.739348,9.3407,323.539014,2.41826793,0,0.64636633,115.337687,8/27/2011,2000.0,22.84,0.15
2006 WZ3,e,3.812391,176.345598,0.313547,1.74650304,0,0.577357,337.876505,8/27/2011,2000.0,20.22,0.15
2006 WE4,e,24.766351,311.046075,318.596761,0.78468301,0,0.18294342,143.156549,8/27/2011,2000.0,18.83,0.15
2006 WQ29,e,8.068545,112.056163,136.449246,1.60077813,0,0.39379873,299.474536,8/27/2011,2000.0,18.11,0.15
2006 WR29,e,11.938124,243.360113,197.666599,2.39149671,0,0.55162711,99.014937,8/27/2011,2000.0,23.89,0.15
2006 WS29,e,14.517612,63.7854,56.953031,1.66098325,0,0.45729326,58.084001,8/27/2011,2000.0,25.03,0.15
2006 WV29,e,1.224512,75.060197,82.144945,1.38253345,0,0.55865145,300.244267,8/27/2011,2000.0,26.52,0.15
2006 WX29,e,2.558936,239.152749,96.492372,2.33115668,0,0.73030693,134.092178,8/27/2011,2000.0,27.8,0.15
2006 WZ29,e,4.86272,226.831028,143.89391,2.26956064,0,0.57393872,153.412728,8/27/2011,2000.0,24.82,0.15
2006 WA30,e,10.058149,241.444853,226.89395,1.62819242,0,0.42134188,85.766263,8/27/2011,2000.0,25.6,0.15
2006 WB30,e,3.63508,70.559024,359.921536,1.64389005,0,0.36091469,88.507975,8/27/2011,2000.0,25.87,0.15
2006 WC30,e,4.974153,72.268296,13.595223,2.60003742,0,0.62224027,44.64309,8/27/2011,2000.0,24.27,0.15
2006 WP127,e,6.080407,178.335592,22.914476,2.53201118,0,0.76755604,27.576359,8/27/2011,2000.0,18.39,0.15
2006 WQ127,e,18.116328,73.491565,87.555145,1.30818825,0,0.50834479,22.871979,8/27/2011,2000.0,23.34,0.15
2006 WR127,e,16.788047,260.845796,351.41528,0.90705809,0,0.37599536,7.120231,8/27/2011,2000.0,20.38,0.15
2006 WD129,e,6.026915,56.780565,319.472989,1.88187699,0,0.50111623,316.630646,8/27/2011,2000.0,26.34,0.15
2006 WE129,e,39.543263,64.326124,109.99151,1.72701486,0,0.4815098,336.37615,8/27/2011,2000.0,19.76,0.15
2006 WG129,e,11.048472,276.159516,211.92929,1.761831,0,0.42407433,354.924626,8/27/2011,2000.0,20.37,0.15
2006 WG130,e,11.267923,64.034309,325.383779,2.40178068,0,0.59876816,106.760295,8/27/2011,2000.0,24.57,0.15
2006 WH130,e,17.043031,66.952302,18.624892,1.3041138,0,0.18062198,52.031487,8/27/2011,2000.0,23.75,0.15
2006 WJ130,e,22.405107,244.778272,130.134631,1.13359601,0,0.13497876,14.794975,8/27/2011,2000.0,24.06,0.15
